{
    "links": {
        "self": "http://www.neowsapp.com/rest/v1/neo/54031745?api_key=iIulBulltgU6a56xZRHN4H3l9WmuAYTsLGpBGhQ2"
    },
    "id": "54031745",
    "neo_reference_id": "54031745",
    "name": "(2020 NJ)",
    "designation": "2020 NJ",
    "nasa_jpl_url": "http://ssd.jpl.nasa.gov/sbdb.cgi?sstr=54031745",
    "absolute_magnitude_h": 22.586,
    "estimated_diameter": {
        "kilometers": {
            "estimated_diameter_min": 0.0807895105,
            "estimated_diameter_max": 0.1806508373
        },
        "meters": {
            "estimated_diameter_min": 80.7895104699,
            "estimated_diameter_max": 180.6508372796
        },
        "miles": {
            "estimated_diameter_min": 0.0502002589,
            "estimated_diameter_max": 0.1122511914
        },
        "feet": {
            "estimated_diameter_min": 265.0574575301,
            "estimated_diameter_max": 592.6864929806
        }
    },
    "is_potentially_hazardous_asteroid": false,
    "close_approach_data": [
        {
            "close_approach_date": "1999-08-01",
            "close_approach_date_full": "1999-Aug-01 09:37",
            "epoch_date_close_approach": 933500220000,
            "relative_velocity": {
                "kilometers_per_second": "39.7574007867",
                "kilometers_per_hour": "143126.6428321967",
                "miles_per_hour": "88933.3298198169"
            },
            "miss_distance": {
                "astronomical": "0.4973012747",
                "lunar": "193.4501958583",
                "kilometers": "74395211.443404889",
                "miles": "46227040.8145659082"
            },
            "orbiting_body": "Earth"
        },
        {
            "close_approach_date": "2020-06-14",
            "close_approach_date_full": "2020-Jun-14 06:25",
            "epoch_date_close_approach": 1592115900000,
            "relative_velocity": {
                "kilometers_per_second": "30.4542519166",
                "kilometers_per_hour": "109635.3068996891",
                "miles_per_hour": "68123.1161121985"
            },
            "miss_distance": {
                "astronomical": "0.1109968567",
                "lunar": "43.1777772563",
                "kilometers": "16604893.339015229",
                "miles": "10317802.2780150002"
            },
            "orbiting_body": "Venus"
        },
        {
            "close_approach_date": "2020-07-04",
            "close_approach_date_full": "2020-Jul-04 15:00",
            "epoch_date_close_approach": 1593874800000,
            "relative_velocity": {
                "kilometers_per_second": "23.2691630041",
                "kilometers_per_hour": "83768.986814774",
                "miles_per_hour": "52050.79072388"
            },
            "miss_distance": {
                "astronomical": "0.0494955685",
                "lunar": "19.2537761465",
                "kilometers": "7404431.622039095",
                "miles": "4600900.463345711"
            },
            "orbiting_body": "Earth"
        }
    ],
    "orbital_data": {
        "orbit_id": "6",
        "orbit_determination_date": "2020-07-25 06:40:15",
        "first_observation_date": "2020-07-09",
        "last_observation_date": "2020-07-24",
        "data_arc_in_days": 15,
        "observations_used": 40,
        "orbit_uncertainty": "8",
        "minimum_orbit_intersection": ".00625903",
        "jupiter_tisserand_invariant": "3.524",
        "epoch_osculation": "2459043.5",
        "eccentricity": ".7616791731224175",
        "semi_major_axis": "1.897718663788208",
        "inclination": "1.574430376809421",
        "ascending_node_longitude": "60.75972283474824",
        "orbital_period": "954.8742240699339",
        "perihelion_distance": ".4522658811350267",
        "perihelion_argument": "117.8168710937413",
        "aphelion_distance": "3.343171446441389",
        "perihelion_time": "2458987.452491080960",
        "mean_anomaly": "21.13063972431269",
        "mean_motion": ".3770130043573508",
        "equinox": "J2000",
        "orbit_class": {
            "orbit_class_type": "APO",
            "orbit_class_description": "Near-Earth asteroid orbits which cross the Earth’s orbit similar to that of 1862 Apollo",
            "orbit_class_range": "a (semi-major axis) > 1.0 AU; q (perihelion) < 1.017 AU"
        }
    },
    "is_sentry_object": false
}